QIANFAN-33              
1 61566U 24185Q   25326.77072735  .00000484  00000+0  34051-3 0  9991
2 61566  88.9796  81.0298 0007857  43.0106 317.1684 13.96529508 66372
QIANFAN-34              
1 61567U 24185R   25326.81800007  .00000546  00000+0  34780-3 0  9996
2 61567  88.9772  80.6149 0007057  51.6612 308.5201 14.02280084 66567
QIANFAN-35              
1 61568U 24185S   25326.79593678  .00000872  00000+0  34656-3 0  9991
2 61568  88.9800  79.2163 0006322  10.6257 349.5070 14.27917159 67336
QIANFAN-36              
1 61569U 24185T   25326.81212189  .00000225  00000+0  30650-3 0  9992
2 61569  88.9778  83.1165 0007778 101.2007 259.0021 13.55578869 65221
QIANFAN-37              
1 62238U 24232B   25326.77290336  .00000185  00000+0  26762-3 0  9998
2 62238  89.0037  43.3421 0002455 119.5411 240.5985 13.50985713 96476
QIANFAN-38              
1 62239U 24232C   25326.72348745  .00000193  00000+0  27998-3 0  9993
2 62239  89.0044  43.2615 0013006 248.3915 111.5850 13.50974947 96524
QIANFAN-39              
1 62240U 24232D   25326.76712279  .00000640  00000+0  26497-3 0  9996
2 62240  89.0034  39.5909 0017914 139.3735 220.8798 14.25362990 98541
QIANFAN-40              
1 62241U 24232E   25326.75639976  .00000193  00000+0  28003-3 0  9996
2 62241  89.0071  42.8372 0011881 256.9717 103.0108 13.50974601 96895
